{"type":"FeatureCollection","features":[{"type":"Feature","properties":{"name":"Río Amazonas","lat":-3.12,"lng":-60.02,"length_km":6992,"discharge_m3s":209000,"basin_km2":7050000,"description":"El río más caudaloso del mundo, alberga el 20% del agua dulce fluvial del planeta","_raw":"{\"name\":\"Río Amazonas\",\"lat\":-3.12,\"lng\":-60.02,\"length_km\":6992,\"discharge_m3s\":209000,\"basin_km2\":7050000,\"countries\":[\"Brasil\",\"Perú\",\"Colombia\"],\"description\":\"El río más caudaloso del mundo, alberga el 20% del agua dulce fluvial del planeta\"}"},"geometry":{"type":"MultiLineString","coordinates":[[[-54.321,-2.19],[-54.306,-2.247],[-54.143,-2.245]],[[-52.712,-1.584],[-52.928,-1.62],[-53.069,-1.741],[-53.217,-1.812],[-53.779,-1.918],[-54.035,-2.078],[-54.074,-2.33],[-54.192,-2.381],[-54.575,-2.45],[-54.677,-2.412],[-54.704,-2.299],[-54.671,-2.214],[-54.721,-2.152],[-54.912,-2.073],[-55.09,-2.198],[-55.315,-2.135],[-55.43,-1.997],[-55.603,-1.908],[-55.769,-1.982],[-56.052,-2.014],[-56.192,-2.162],[-56.361,-2.278],[-56.519,-2.512],[-56.637,-2.571],[-56.796,-2.586],[-57.003,-2.509],[-57.203,-2.563],[-57.407,-2.409],[-57.514,-2.384],[-57.572,-2.417],[-57.681,-2.63],[-57.807,-2.752],[-58.111,-2.88],[-58.191,-3.155],[-58.237,-3.216],[-58.503,-3.16],[-58.66,-3.341],[-58.844,-3.349],[-59.028,-3.245],[-59.28,-3.222],[-59.674,-3.073],[-59.806,-3.076],[-59.897,-3.105],[-59.899,-3.191],[-59.983,-3.261],[-60.165,-3.337],[-60.317,-3.29],[-60.582,-3.343],[-60.691,-3.328],[-60.914,-3.609],[-61.189,-3.59],[-61.402,-3.616],[-61.567,-3.73],[-61.663,-3.856],[-61.878,-3.963],[-61.969,-3.946],[-62.078,-3.851],[-62.388,-3.695],[-62.431,-3.715],[-62.462,-3.838],[-62.623,-3.889],[-62.785,-3.892],[-63.117,-4.081],[-63.169,-4.058],[-63.2,-3.949],[-63.533,-3.845],[-63.694,-3.881],[-63.908,-3.831],[-64.02,-3.747],[-64.2,-3.696],[-64.437,-3.554],[-64.511,-3.414],[-64.588,-3.394],[-64.843,-3.141],[-65.015,-3.039],[-65.186,-2.87],[-65.234,-2.767],[-65.448,-2.687],[-65.491,-2.591],[-65.711,-2.619],[-65.947,-2.456],[-66.068,-2.495],[-66.181,-2.424],[-66.247,-2.533],[-66.314,-2.567],[-66.425,-2.454],[-66.539,-2.419],[-66.602,-2.464],[-66.608,-2.643],[-66.663,-2.69],[-66.847,-2.689],[-66.986,-2.734],[-67.092,-2.656],[-67.21,-2.649],[-67.273,-2.586],[-67.348,-2.58],[-67.491,-2.75],[-67.788,-2.844],[-67.928,-3.055],[-67.925,-3.262],[-67.971,-3.336],[-68.248,-3.327],[-68.351,-3.293],[-68.488,-3.35],[-68.584,-3.329],[-68.833,-3.404],[-69.065,-3.409],[-69.328,-3.501],[-69.422,-3.707],[-69.398,-3.936],[-69.505,-4.087],[-69.41,-4.185],[-69.605,-4.337],[-69.754,-4.37],[-69.927,-4.329],[-70.011,-4.155],[-70.189,-4.029],[-70.242,-3.891],[-70.35,-3.816],[-70.465,-3.879],[-70.626,-3.868],[-71.079,-3.997],[-71.166,-3.971],[-71.198,-3.893],[-71.253,-3.861],[-71.471,-3.859],[-71.599,-3.748],[-71.682,-3.721],[-71.728,-3.632],[-71.742,-3.389],[-71.836,-3.337],[-72.056,-3.46],[-72.263,-3.516],[-72.806,-3.445],[-73.051,-3.522],[-73.249,-3.733],[-73.188,-3.8],[-73.214,-3.926],[-73.171,-3.996],[-73.185,-4.103],[-73.236,-4.145],[-73.367,-4.107],[-73.362,-4.208],[-73.454,-4.3],[-73.444,-4.405],[-73.489,-4.445]],[[-54.144,-2.245],[-54.088,-2.018],[-53.952,-1.929],[-53.79,-1.923]]]}},{"type":"Feature","properties":{"name":"Río Nilo","lat":25,"lng":32.9,"length_km":6650,"discharge_m3s":2830,"basin_km2":3349000,"description":"El río más largo de África, sustento de civilizaciones milenarias","_raw":"{\"name\":\"Río Nilo\",\"lat\":25,\"lng\":32.9,\"length_km\":6650,\"discharge_m3s\":2830,\"basin_km2\":3349000,\"countries\":[\"Egipto\",\"Uganda\",\"Sudán\"],\"description\":\"El río más largo de África, sustento de civilizaciones milenarias\"}"},"geometry":{"type":"MultiLineString","coordinates":[[[32.879,23.988],[32.863,23.894],[32.918,23.749],[32.856,23.539],[32.943,23.307],[32.801,23.197],[32.668,22.972],[32.592,22.91],[32.571,22.772],[32.454,22.709],[32.373,22.62],[32.292,22.634],[32.253,22.71],[32.185,22.751],[31.994,22.682],[31.914,22.602],[31.861,22.474],[31.757,22.429],[31.419,22.15],[31.343,21.923],[31.201,21.767],[31.176,21.673],[31.091,21.609]],[[32.879,23.988],[32.873,24.231],[32.924,24.442],[32.878,24.49],[32.934,24.689],[32.865,24.905],[32.882,25.015],[32.836,25.105],[32.56,25.283],[32.554,25.424],[32.483,25.55],[32.488,25.586],[32.595,25.636],[32.682,25.775],[32.764,25.802],[32.729,25.882],[32.786,26.007],[32.763,26.112],[32.649,26.18],[32.606,26.14],[32.434,26.112],[32.375,26.068],[32.324,26.084],[32.266,26.03],[32.117,26.218],[32.06,26.222],[32.042,26.17],[32.016,26.181],[32.013,26.259],[31.824,26.413],[31.808,26.541],[31.776,26.567],[31.704,26.544],[31.714,26.626],[31.636,26.65],[31.482,26.907],[31.353,27.024],[31.28,27.158],[31.198,27.174],[31.164,27.219],[31.115,27.202],[31.111,27.27],[31.035,27.284],[30.966,27.347],[30.974,27.372],[30.849,27.46],[30.851,27.578],[30.899,27.678],[30.886,27.801],[30.844,27.852],[30.837,28.038],[30.746,28.133],[30.741,28.322],[30.835,28.448],[30.837,28.627],[30.907,28.76],[30.91,28.83],[31.221,29.233],[31.213,29.429],[31.28,29.547],[31.27,29.625],[31.304,29.669],[31.269,29.733],[31.289,29.885],[31.221,30.008],[31.237,30.124]],[[33.693,18.489],[33.688,18.691],[33.56,18.76],[33.562,19.179],[33.425,19.269],[33.351,19.444],[33.058,19.529],[32.97,19.461],[32.87,19.436],[32.721,19.285],[32.657,19.165],[32.509,19.148],[32.462,19.033],[32.344,18.889],[32.274,18.914],[32.192,18.892],[32.037,18.785],[32.064,18.711],[32.046,18.619],[31.968,18.573],[31.879,18.567],[31.778,18.366],[31.529,18.081],[31.451,18.044],[31.325,18.043],[31.207,17.984],[30.962,18.054],[30.893,18.13],[30.769,18.169],[30.7,18.328],[30.703,18.468],[30.587,18.593],[30.485,18.86],[30.489,19.371],[30.456,19.507],[30.399,19.584],[30.366,19.773],[30.303,19.828],[30.336,19.882],[30.539,19.931],[30.587,19.972],[30.604,20.04],[30.562,20.17],[30.587,20.272],[30.523,20.347],[30.388,20.362],[30.299,20.582],[30.37,20.717],[30.349,20.802],[30.567,20.858],[30.604,21.028],[30.714,21.092],[30.679,21.173],[30.693,21.205],[30.973,21.381],[30.994,21.413],[30.962,21.454],[31.091,21.609]],[[33.693,18.489],[33.693,18.49]],[[33.791,18.352],[33.695,18.443],[33.693,18.489]],[[32.49,15.635],[32.53,15.781],[32.518,15.844],[32.55,15.883],[32.54,16.138],[32.608,16.251],[32.681,16.283],[32.69,16.327],[32.863,16.499],[32.995,16.548],[33.127,16.535],[33.279,16.66],[33.599,16.765],[33.73,16.964],[33.735,17.046],[33.702,17.104],[33.749,17.182],[33.753,17.294],[33.852,17.406],[33.902,17.557],[33.975,17.613],[33.989,17.806],[33.928,18.265],[33.897,18.317],[33.817,18.318],[33.751,18.462],[33.693,18.489]]]}},{"type":"Feature","properties":{"name":"Río Yangtze","lat":30,"lng":112,"length_km":6300,"discharge_m3s":30166,"basin_km2":1800000,"description":"El río más largo de Asia, fuente de agua para 400 millones de personas","_raw":"{\"name\":\"Río Yangtze\",\"lat\":30,\"lng\":112,\"length_km\":6300,\"discharge_m3s\":30166,\"basin_km2\":1800000,\"countries\":[\"China\"],\"description\":\"El río más largo de Asia, fuente de agua para 400 millones de personas\"}"},"geometry":{"type":"MultiLineString","coordinates":[[[119.606,32.197],[119.505,32.24],[119.252,32.2],[119.079,32.233],[118.91,32.174],[118.774,32.187],[118.426,31.724],[118.38,31.556],[118.302,31.438],[118.315,31.308],[118.014,31.238],[117.989,31.123],[117.953,31.094],[117.907,31.088],[117.857,31.141],[117.793,31.124],[117.697,30.804],[117.429,30.702],[117.226,30.673],[117.21,30.514],[117.007,30.484],[116.893,30.423],[116.921,30.337],[116.907,30.271],[116.809,30.102],[116.636,30.043],[116.513,29.894],[116.389,29.876],[116.265,29.789],[116.11,29.786],[115.889,29.732],[115.743,29.809],[115.705,29.861],[115.463,29.871],[115.19,30.209],[115.072,30.236],[115.053,30.369],[114.829,30.441],[114.809,30.526],[114.845,30.606],[114.601,30.574],[114.502,30.673],[114.429,30.69],[114.296,30.587]],[[116.198,29.751],[116.208,29.779]],[[113.128,29.463],[113.416,29.764],[113.664,29.955],[113.749,29.92],[113.792,29.933],[113.923,30.034],[114.062,30.089],[114.064,30.124],[113.983,30.185],[113.874,30.185],[113.858,30.231],[113.968,30.291],[114.054,30.24],[114.107,30.352],[114.303,30.593]]]}},{"type":"Feature","properties":{"name":"Río Mississippi","lat":32,"lng":-90,"length_km":6275,"discharge_m3s":16800,"basin_km2":2980000,"description":"Drena el 41% del territorio continental de EE.UU.","_raw":"{\"name\":\"Río Mississippi\",\"lat\":32,\"lng\":-90,\"length_km\":6275,\"discharge_m3s\":16800,\"basin_km2\":2980000,\"countries\":[\"Estados Unidos\"],\"description\":\"Drena el 41% del territorio continental de EE.UU.\"}"},"geometry":{"type":"MultiLineString","coordinates":[[[-94.507,47.456],[-94.637,47.44]],[[-94.326,47.406],[-94.266,47.405],[-94.16,47.475],[-94.094,47.433]],[[-94.508,47.457],[-94.326,47.406]],[[-94.094,47.433],[-94.053,47.427],[-94.037,47.36],[-93.936,47.304],[-93.793,47.314],[-93.8,47.218],[-93.635,47.259],[-93.466,47.195],[-93.38,47.055],[-93.285,47.013],[-93.377,46.89],[-93.371,46.794],[-93.443,46.739],[-93.615,46.684],[-93.717,46.553],[-93.84,46.589],[-93.956,46.553],[-94.04,46.574],[-94.087,46.533],[-94.108,46.451],[-94.408,46.229],[-94.352,46.09],[-94.398,45.933],[-94.369,45.841],[-94.197,45.676],[-94.217,45.617],[-94.142,45.498],[-93.814,45.316],[-93.597,45.3],[-93.437,45.22],[-93.32,45.149],[-93.285,45.022],[-93.203,44.901],[-93.09,44.95],[-93.01,44.801],[-92.82,44.758],[-92.585,44.608],[-92.394,44.58],[-92.286,44.471],[-92.103,44.437],[-91.95,44.336],[-91.817,44.163],[-91.65,44.068],[-91.414,44.018],[-91.361,43.945],[-91.295,43.919],[-91.243,43.74],[-91.248,43.463],[-91.209,43.373],[-91.087,43.317],[-91.168,43.16],[-91.142,42.928],[-91.092,42.871],[-91.08,42.792],[-91.011,42.716],[-90.703,42.655],[-90.626,42.544],[-90.642,42.476],[-90.432,42.352],[-90.403,42.245],[-90.17,42.116],[-90.14,42.03],[-90.189,41.835],[-90.305,41.748],[-90.346,41.605],[-90.662,41.462],[-90.992,41.434],[-91.055,41.383],[-91.094,41.211],[-90.969,41.116],[-90.949,40.982],[-91.083,40.839],[-91.153,40.672],[-91.401,40.581],[-91.374,40.403],[-91.473,40.358],[-91.519,40.175],[-91.493,40.009],[-91.443,39.94],[-91.449,39.866],[-91.375,39.736],[-91.104,39.533],[-91.051,39.452],[-90.774,39.279],[-90.703,39.101],[-90.703,38.995],[-90.627,38.89],[-90.542,38.894],[-90.479,38.959],[-90.428,38.967],[-90.184,38.883],[-90.132,38.819]],[[-95.18,47.216],[-95.258,47.331],[-95.149,47.45],[-94.986,47.445],[-94.835,47.499],[-94.637,47.44]],[[-90.132,38.819],[-90.198,38.744],[-90.197,38.638],[-90.378,38.338],[-90.368,38.239],[-90.111,38.017],[-89.923,37.953],[-89.722,37.837],[-89.647,37.733],[-89.523,37.679],[-89.523,37.542],[-89.442,37.398],[-89.523,37.307],[-89.523,37.268],[-89.474,37.244],[-89.377,37.047],[-89.275,37],[-89.309,37.071],[-89.26,37.083],[-89.188,36.981],[-89.124,36.98],[-89.153,36.839],[-89.133,36.761],[-89.226,36.58],[-89.285,36.578],[-89.37,36.633],[-89.466,36.458],[-89.505,36.458],[-89.503,36.554],[-89.57,36.556],[-89.531,36.383],[-89.629,36.341],[-89.561,36.264],[-89.695,36.247],[-89.614,36.142],[-89.716,36.035],[-89.726,35.993],[-89.674,35.896],[-89.76,35.909],[-89.784,35.878],[-89.722,35.833],[-89.952,35.723],[-89.91,35.652],[-89.951,35.602],[-89.918,35.548],[-90.012,35.512],[-90.022,35.453],[-90.115,35.369],[-90.085,35.148],[-90.106,35.123],[-90.178,35.13],[-90.222,35.048],[-90.313,35.012],[-90.272,34.923],[-90.464,34.828],[-90.478,34.737],[-90.554,34.74],[-90.594,34.642],[-90.594,34.425],[-90.686,34.372],[-90.759,34.381],[-90.761,34.352]],[[-90.761,34.352],[-90.764,34.362]],[[-90.761,34.352],[-90.771,34.284],[-90.821,34.286],[-90.864,34.206],[-90.956,34.157],[-90.955,34.129],[-90.883,34.099],[-90.893,34.043],[-91.093,33.989],[-91.036,33.93],[-91.069,33.884],[-91.058,33.793],[-91.117,33.78],[-91.229,33.681],[-91.152,33.633],[-91.157,33.587],[-91.236,33.567],[-91.127,33.478],[-91.134,33.382],[-91.182,33.32],[-91.113,33.28],[-91.093,33.167],[-91.161,33.119],[-91.168,32.981],[-91.072,32.923],[-91.133,32.858],[-91.157,32.771],[-91.07,32.711],[-91.157,32.68],[-91.166,32.644],[-91.099,32.567],[-91.105,32.465],[-91.006,32.404],[-90.991,32.357],[-90.917,32.34],[-90.913,32.31],[-91.032,32.147],[-91.096,32.141],[-91.069,32.085],[-91.092,32.014],[-91.351,31.841],[-91.436,31.573],[-91.529,31.501],[-91.496,31.411],[-91.529,31.293],[-91.648,31.271],[-91.605,31.205],[-91.628,31.142],[-91.579,31.056],[-91.662,30.997],[-91.652,30.948],[-91.521,30.882],[-91.525,30.817],[-91.582,30.757],[-91.369,30.752],[-91.245,30.569],[-91.282,30.511],[-91.209,30.518],[-91.192,30.445],[-91.244,30.364],[-91.157,30.344],[-91.223,30.291],[-91.117,30.267],[-91.148,30.196],[-91.046,30.21],[-91.013,30.126],[-90.921,30.127],[-90.813,30.009],[-90.668,30.059],[-90.501,30.06],[-90.354,29.948],[-90.246,29.972],[-90.106,29.922],[-90.048,29.956],[-89.937,29.927],[-89.918,29.876],[-89.974,29.884],[-90.024,29.786],[-89.956,29.656],[-89.61,29.464],[-89.603,29.408],[-89.408,29.349],[-89.272,29.202],[-89.281,29.1],[-89.414,28.935]],[[-89.27,29.202],[-89.188,29.319]],[[-89.257,29.155],[-89.031,29.196]]]}},{"type":"Feature","properties":{"name":"Río Congo","lat":-2,"lng":21,"length_km":4700,"discharge_m3s":41000,"basin_km2":3680000,"description":"Segundo río más caudaloso del mundo, atraviesa la selva tropical","_raw":"{\"name\":\"Río Congo\",\"lat\":-2,\"lng\":21,\"length_km\":4700,\"discharge_m3s\":41000,\"basin_km2\":3680000,\"countries\":[\"R.D. Congo\",\"Rep. Congo\"],\"description\":\"Segundo río más caudaloso del mundo, atraviesa la selva tropical\"}"},"geometry":{"type":"MultiLineString","coordinates":[[[26.441,-8.272],[26.56,-8.272],[26.725,-8.207],[26.794,-8.152],[26.794,-8.042],[26.972,-7.918],[26.945,-7.892],[26.974,-7.846],[26.794,-7.679],[26.855,-7.569],[26.864,-7.461],[26.945,-7.446],[26.959,-7.348],[27.027,-7.247],[27.027,-7.162],[27.068,-7.145],[27.081,-7.079],[26.952,-6.727],[26.99,-6.473],[26.977,-6.347],[26.912,-6.268],[26.935,-6.199],[26.89,-5.887],[26.93,-5.61]],[[24.292,0.782],[24.14,0.971],[23.91,1.075],[23.772,1.086],[23.599,1.173],[23.438,1.391],[23.184,1.643],[23.045,1.848],[22.953,1.905],[22.715,1.959],[22.498,2.152],[22.093,2.187],[21.597,2.148],[21.344,2.091],[21.207,2.006],[20.907,2.017],[20.155,1.961],[19.47,1.721],[19.123,1.563],[18.571,1.106],[18.391,0.889],[18.252,0.197],[18.149,-0.089],[18.078,-0.199],[17.664,-0.613],[17.364,-0.967],[17.297,-1.021],[17.022,-1.097],[16.833,-1.269],[16.513,-1.887],[16.206,-2.161],[16.174,-2.303],[16.225,-2.635],[16.177,-2.882],[16.193,-3.238],[16.225,-3.313],[15.912,-3.917],[15.844,-3.965],[15.533,-4.058],[15.458,-4.214],[15.203,-4.339],[15.097,-4.5],[14.93,-4.647],[14.815,-4.828],[14.672,-4.9],[14.501,-4.841],[14.372,-4.908],[14.173,-4.922],[14.054,-5.028],[14.014,-5.013],[13.98,-5.065],[13.976,-5.168],[13.876,-5.234],[13.853,-5.3],[13.825,-5.315],[13.76,-5.267],[13.725,-5.281],[13.726,-5.315],[13.589,-5.295],[13.528,-5.38],[13.617,-5.515],[13.548,-5.537],[13.582,-5.643],[13.569,-5.694],[13.342,-5.89],[13.184,-5.856]]]}},{"type":"Feature","properties":{"name":"Río Ganges","lat":25,"lng":83,"length_km":2525,"discharge_m3s":12015,"basin_km2":1080000,"description":"Río sagrado que sustenta a 500 millones de personas","_raw":"{\"name\":\"Río Ganges\",\"lat\":25,\"lng\":83,\"length_km\":2525,\"discharge_m3s\":12015,\"basin_km2\":1080000,\"countries\":[\"India\",\"Bangladesh\"],\"description\":\"Río sagrado que sustenta a 500 millones de personas\"}"},"geometry":{"type":"MultiLineString","coordinates":[[[79.841,30.888],[79.813,30.82],[79.875,30.689],[79.715,30.508],[79.655,30.502],[79.546,30.573],[79.389,30.422],[79.321,30.398],[79.269,30.304],[79.205,30.277],[79.001,30.306],[78.803,30.236],[78.696,30.244],[78.594,30.145],[78.586,30.073],[78.463,30.073],[78.405,30.132],[78.32,30.141],[78.155,29.925],[78.189,29.707],[78.019,29.619],[77.99,29.572],[78.117,29.251],[78.121,29.192],[78.08,29.141],[78.093,28.836],[78.183,28.693],[78.195,28.57],[78.265,28.489],[78.29,28.307],[78.463,28.106],[78.626,27.99],[78.895,27.913],[78.981,27.827],[79.156,27.818],[79.204,27.691],[79.332,27.637],[79.41,27.647],[79.555,27.542],[79.698,27.242],[79.838,27.145],[79.93,27.144],[80.008,27.027],[80.009,26.971],[80.108,26.874],[80.142,26.742],[80.245,26.682],[80.348,26.488],[80.526,26.365],[80.559,26.238],[80.673,26.115],[80.75,26.106],[80.814,26.03],[80.962,26.077],[81.033,26.061],[81.065,26],[81.204,25.939],[81.225,25.869],[81.393,25.772],[81.377,25.704],[81.4,25.666],[81.513,25.631],[81.554,25.585],[81.63,25.587],[81.705,25.495],[81.778,25.478],[81.908,25.512],[81.903,25.413],[81.97,25.324],[82.043,25.336],[82.112,25.276],[82.181,25.317],[82.215,25.302],[82.202,25.19],[82.273,25.194],[82.225,25.22],[82.291,25.276],[82.328,25.215],[82.397,25.261],[82.497,25.17],[82.551,25.158],[82.593,25.173],[82.568,25.218],[82.637,25.22],[82.779,25.125],[82.836,25.119],[82.92,25.195],[83.008,25.211],[83.006,25.289],[83.042,25.323],[83.171,25.351],[83.178,25.41],[83.123,25.452],[83.186,25.529],[83.326,25.475],[83.409,25.487],[83.53,25.402],[83.541,25.439],[83.491,25.517],[83.617,25.598],[83.706,25.608],[83.772,25.517],[83.898,25.524],[84.143,25.736],[84.18,25.746],[84.254,25.68],[84.373,25.765],[84.487,25.701],[84.596,25.693],[84.749,25.753],[84.881,25.708],[85.059,25.728],[85.143,25.642],[85.237,25.618],[85.284,25.554],[85.369,25.514],[85.515,25.585],[85.652,25.463],[85.738,25.511],[85.831,25.505],[86.028,25.334],[86.241,25.33],[86.306,25.293],[86.415,25.331],[86.534,25.483],[86.591,25.461],[86.58,25.375],[86.611,25.304],[86.694,25.256],[86.782,25.276],[86.89,25.35],[86.996,25.278],[87.19,25.23],[87.304,25.377],[87.478,25.404],[87.599,25.267],[87.77,25.237],[87.781,25.09],[87.954,24.988],[87.911,24.844],[87.959,24.717],[88.081,24.6],[88.119,24.494],[88.191,24.461],[88.308,24.486],[88.444,24.351],[88.516,24.367],[88.681,24.334],[88.737,24.287],[88.751,24.153],[88.824,24.119],[88.96,24.167],[89.037,24.095],[89.089,23.977]],[[87.938,24.806],[87.941,24.619],[88.057,24.516],[88.078,24.456],[88.119,24.447],[88.113,24.409],[88.252,24.312],[88.229,24.289],[88.253,24.271],[88.257,24.141],[88.195,24.001],[88.229,23.988],[88.199,23.973],[88.238,23.775],[88.16,23.7],[88.148,23.634],[88.219,23.607],[88.236,23.638],[88.264,23.577],[88.325,23.61],[88.283,23.549],[88.365,23.524],[88.341,23.438],[88.379,23.391],[88.341,23.334],[88.348,23.27],[88.392,23.216],[88.457,23.212],[88.447,23.142],[88.496,23.107],[88.468,23.063],[88.495,23.049],[88.44,23.028],[88.407,22.946]],[[88.429,24.356],[88.453,24.283],[88.537,24.23],[88.54,24.199],[88.509,24.199],[88.523,24.144],[88.646,24.083],[88.633,23.988],[88.787,23.962],[88.863,23.908],[88.87,23.7],[88.827,23.681],[88.826,23.637],[88.764,23.627],[88.74,23.564],[88.794,23.485],[88.828,23.487],[88.835,23.43],[88.907,23.473],[88.889,23.413],[88.939,23.397],[88.905,23.362],[88.989,23.367],[88.974,23.417],[89.016,23.385],[88.997,23.223],[89.037,23.212],[89.119,23.076],[89.078,22.999],[89.119,22.967],[89.093,22.934],[89.13,22.93],[89.137,22.894],[89.112,22.89],[89.154,22.795],[89.191,22.812],[89.174,22.767],[89.312,22.693],[89.263,22.706],[89.304,22.638],[89.293,22.6]],[[89.088,23.978],[89.089,23.977]],[[89.089,23.977],[89.159,23.934],[89.321,23.93],[89.53,23.819],[89.749,23.848]],[[89.089,23.977],[89.25,23.816],[89.262,23.752],[89.353,23.672],[89.421,23.674],[89.526,23.537],[89.503,23.487],[89.548,23.506],[89.599,23.473],[89.626,23.371],[89.599,23.385],[89.598,23.353],[89.638,23.288],[89.667,23.289],[89.628,23.24],[89.681,23.227],[89.695,23.171],[89.756,23.171],[89.711,23.119],[89.681,23.138],[89.685,23.11],[89.833,22.932],[89.943,22.857],[90.007,22.75],[90.01,22.49]],[[90.087,23.579],[90.069,23.512],[90.112,23.439],[90.065,23.391],[90.116,23.369],[90.134,23.298],[90.099,23.302],[90.099,23.261],[90.128,23.278],[90.145,23.237],[90.213,23.225],[90.213,23.191]],[[90.213,23.191],[90.172,23.179],[90.213,23.191]],[[90.213,23.191],[90.25,23.175],[90.243,23.124],[90.332,23.09],[90.292,23.043],[90.325,23.038],[90.317,23.005],[90.385,22.934],[90.365,22.846],[90.394,22.775]],[[88.407,22.946],[88.496,22.934],[88.556,22.985],[88.633,22.939],[88.724,22.943],[88.773,22.855],[88.853,22.83],[88.813,22.721],[88.942,22.638],[88.956,22.585],[88.928,22.548],[88.971,22.528],[88.998,22.451],[89.009,22.286],[89.076,22.175],[89.06,22.131]],[[88.407,22.946],[88.345,22.778],[88.366,22.699],[88.342,22.576],[88.251,22.554],[88.133,22.469],[88.14,22.399],[88.107,22.384],[88.071,22.235]],[[88.406,22.946],[88.407,22.946]],[[89.293,22.6],[89.257,22.633],[89.252,22.512],[89.291,22.466],[89.258,22.444],[89.253,22.381],[89.318,22.281],[89.342,22.131],[89.387,22.087],[89.345,22.021],[89.352,21.972]],[[89.293,22.6],[89.293,22.598]],[[89.476,22.295],[89.444,22.334],[89.426,22.534],[89.345,22.603],[89.293,22.6]]]}},{"type":"Feature","properties":{"name":"Río Danubio","lat":46,"lng":20,"length_km":2850,"discharge_m3s":6500,"basin_km2":817000,"description":"El segundo río más largo de Europa, atraviesa 10 países","_raw":"{\"name\":\"Río Danubio\",\"lat\":46,\"lng\":20,\"length_km\":2850,\"discharge_m3s\":6500,\"basin_km2\":817000,\"countries\":[\"Alemania\",\"Austria\",\"Hungría\",\"Rumanía\"],\"description\":\"El segundo río más largo de Europa, atraviesa 10 países\"}"},"geometry":{"type":"MultiLineString","coordinates":[[[17.206,48.061],[17.572,47.83],[17.825,47.75],[18.692,47.778],[18.79,47.827],[18.948,47.803],[19.039,47.83],[19.107,47.803],[19.124,47.693],[19.054,47.54],[19.047,47.426],[18.953,47.357],[18.881,47.19],[18.897,47.09],[18.968,47.033],[18.967,46.917],[18.926,46.835],[19.002,46.709],[18.858,46.615],[18.92,46.499],[18.892,46.378],[18.915,46.195],[18.692,46.019],[18.831,45.896],[18.848,45.81],[18.962,45.683],[18.903,45.573],[18.941,45.539],[19.018,45.568],[19.106,45.512],[19.009,45.499],[19.002,45.456],[19.037,45.423],[18.975,45.395],[19.003,45.366],[19.091,45.35],[19.162,45.285],[19.363,45.248],[19.53,45.267],[19.599,45.228],[19.811,45.228],[19.881,45.282],[19.986,45.19],[20.222,45.175],[20.346,45.073],[20.357,45.034],[20.291,44.977],[20.319,44.934],[20.455,44.84],[20.636,44.849],[20.633,44.765],[20.764,44.668],[20.883,44.673],[21.36,44.827],[21.412,44.785],[21.578,44.778],[21.656,44.688],[21.855,44.699],[21.994,44.659],[22.086,44.522],[22.148,44.501],[22.304,44.678],[22.468,44.73],[22.765,44.583],[22.699,44.542],[22.58,44.566],[22.548,44.512],[22.484,44.5],[22.522,44.375],[22.681,44.306],[22.69,44.229],[23.031,44.093],[23.022,44.032],[22.885,43.995],[22.863,43.856],[23.131,43.848],[23.325,43.887]],[[23.325,43.887],[23.325,43.887]],[[23.325,43.887],[23.484,43.881],[23.636,43.832],[23.742,43.843],[24.159,43.753],[24.358,43.76],[24.466,43.803],[24.705,43.744],[24.963,43.75],[25.403,43.65],[25.781,43.732],[26.116,43.999],[26.31,44.053],[26.753,44.108],[27.027,44.177],[27.226,44.121],[27.292,44.151],[27.461,44.138],[27.569,44.195],[27.733,44.21],[27.967,44.28],[28.11,44.442],[28.086,44.505],[28.004,44.54],[28.031,44.637],[27.898,44.708],[27.815,44.813],[27.879,44.882],[27.877,45.005],[27.952,45.128],[27.942,45.224],[28.034,45.402],[28.107,45.43],[28.185,45.416],[28.237,45.452],[28.353,45.313],[28.747,45.231]]]}},{"type":"Feature","properties":{"name":"Río Mekong","lat":16,"lng":105,"length_km":4350,"discharge_m3s":16000,"basin_km2":795000,"description":"Arteria vital del sudeste asiático, sustento de 60 millones de personas","_raw":"{\"name\":\"Río Mekong\",\"lat\":16,\"lng\":105,\"length_km\":4350,\"discharge_m3s\":16000,\"basin_km2\":795000,\"countries\":[\"China\",\"Myanmar\",\"Laos\",\"Tailandia\",\"Camboya\",\"Vietnam\"],\"description\":\"Arteria vital del sudeste asiático, sustento de 60 millones de personas\"}"},"geometry":{"type":"MultiLineString","coordinates":[[[103.09,18.137],[103.138,18.167],[103.168,18.25],[103.295,18.288],[103.233,18.349],[103.261,18.4],[103.386,18.442],[103.784,18.344],[103.857,18.287],[103.951,18.333],[104.018,18.299],[104.27,17.874],[104.352,17.82],[104.452,17.666],[104.702,17.528],[104.792,17.424],[104.819,17.361],[104.814,17.194],[104.74,17.003],[104.779,16.705],[104.754,16.529],[105.015,16.277],[105.058,16.121],[105.422,16.01],[105.36,15.92],[105.412,15.8],[105.613,15.722],[105.65,15.635],[105.604,15.439],[105.486,15.375],[105.483,15.335],[105.632,15.32],[105.767,15.133]],[[101.564,17.821],[101.577,17.868],[101.729,17.912],[101.79,18.074],[101.904,18.037],[102.078,18.214],[102.172,18.201],[102.306,18.052],[102.445,17.978],[102.599,17.955],[102.595,17.841],[102.683,17.81],[102.673,17.866],[102.852,17.972],[102.955,18.012],[103.038,17.991],[103.092,18.141]],[[105.782,15.121],[105.897,15.004],[105.903,14.824],[105.935,14.766],[105.877,14.671],[105.853,14.552],[105.88,14.322],[105.816,14.103],[105.879,14.014],[105.976,13.966],[106.003,13.876],[105.975,13.779],[106.037,13.686],[105.905,13.406],[105.956,13.333],[105.968,13.249],[106.046,13.155],[106.043,13.035],[105.959,12.81],[106.007,12.714],[105.998,12.523],[106.048,12.331],[105.983,12.262],[105.809,12.255],[105.572,12.294],[105.537,12.234],[105.557,12.142],[105.458,11.935],[105.41,11.911],[105.184,11.94],[105.122,11.86],[104.993,11.839],[104.984,11.807],[105.02,11.768],[104.947,11.685],[104.952,11.595]],[[104.95,11.593],[104.951,11.59]],[[104.951,11.591],[104.951,11.59]],[[104.951,11.59],[105.258,11.398],[105.29,11.233],[105.194,11.022],[105.216,10.845],[105.241,10.806],[105.348,10.765],[105.387,10.599],[105.8,10.32],[106.119,10.238]],[[104.951,11.59],[104.951,11.481],[105.05,11.444],[105.014,11.379],[105.057,11.316],[105.065,10.984],[105.113,10.949],[105.086,10.814],[105.135,10.712],[105.214,10.674],[105.253,10.576],[105.335,10.545],[105.353,10.467],[105.439,10.415],[105.664,10.148],[105.838,10.005]]]}},{"type":"Feature","properties":{"name":"Río Volga","lat":53,"lng":46,"length_km":3530,"discharge_m3s":8060,"basin_km2":1380000,"description":"El río más largo de Europa, drena hacia el Mar Caspio","_raw":"{\"name\":\"Río Volga\",\"lat\":53,\"lng\":46,\"length_km\":3530,\"discharge_m3s\":8060,\"basin_km2\":1380000,\"countries\":[\"Rusia\"],\"description\":\"El río más largo de Europa, drena hacia el Mar Caspio\"}"},"geometry":{"type":"MultiLineString","coordinates":[[[38.434,58.02],[38.29,58.104],[38.408,58.288],[38.704,58.113]],[[41.342,57.493],[41.161,57.525],[40.915,57.777],[40.812,57.807],[40.668,57.806],[40.389,57.737],[40.224,57.666],[40.128,57.583],[40.007,57.567]],[[37.761,57.291],[37.859,57.268],[38.005,57.319],[38.242,57.484],[38.301,57.572]],[[37.151,56.753],[36.916,56.803],[36.792,56.793],[36.725,56.695],[36.568,56.621],[36.375,56.706]],[[43.432,56.675],[43.314,56.753],[43.203,56.998],[43.092,57.1],[43.079,57.174],[43.178,57.329],[43.161,57.356],[43.096,57.384],[42.851,57.382],[42.773,57.436],[42.576,57.415]],[[45.195,56.142],[45.25,56.153],[45.419,56.084],[45.513,56.163],[45.702,56.149],[45.84,56.218],[45.903,56.206],[45.968,56.141],[46.195,56.262],[46.591,56.361],[46.727,56.321],[46.857,56.19],[46.945,56.153],[47.463,56.157]],[[49.059,55.483],[49.36,55.152],[48.911,54.997],[48.867,54.648],[48.75,54.57],[48.526,54.523],[48.451,54.388],[48.461,54.213],[48.798,54.033],[48.958,53.9],[48.995,53.819],[48.985,53.608],[49.069,53.494],[49.262,53.463],[49.905,53.457]],[[48.662,53.138],[48.541,53.129],[48.482,53.067],[48.497,52.995],[48.592,52.92],[48.581,52.866],[48.249,52.623],[48.096,52.314],[47.964,52.154],[47.769,52.074]],[[45.664,50.222],[45.887,50.402],[45.858,50.467],[45.682,50.622],[45.673,50.721],[45.737,50.761],[45.956,50.803],[46.054,50.888],[46.004,50.987],[46.012,51.037],[45.835,51.152],[45.837,51.295],[45.967,51.402],[45.983,51.486],[46.181,51.568],[46.332,51.754],[46.483,51.784],[46.777,51.741]],[[38.301,57.572],[38.494,57.824],[38.497,57.905],[38.437,58.018]],[[40.007,57.567],[39.802,57.703],[39.786,57.792],[39.66,57.809],[39.605,57.867],[39.427,57.949],[39.17,58.034],[38.845,58.063],[38.704,58.113]],[[41.344,57.493],[41.633,57.432],[41.839,57.432],[42.039,57.508],[42.183,57.446],[42.325,57.476],[42.576,57.415]],[[32.598,57.25],[32.609,57.151],[32.681,57.079],[32.673,56.986],[32.703,56.945],[32.82,56.921],[32.907,56.945],[32.968,56.922],[33.159,56.934],[33.241,56.89],[33.331,56.9],[33.388,56.857],[33.651,56.794],[33.745,56.679],[33.842,56.664],[34.027,56.527],[34.017,56.498],[33.838,56.455],[33.823,56.438],[33.863,56.412],[33.955,56.36],[34.04,56.353],[34.086,56.31],[34.235,56.31],[34.345,56.252],[34.611,56.189],[34.841,56.266],[34.839,56.307],[34.923,56.361],[34.866,56.394],[34.965,56.481],[34.914,56.545],[34.927,56.567],[35.183,56.589],[35.371,56.733],[35.574,56.769],[35.664,56.851],[35.976,56.87],[36.103,56.804],[36.334,56.775],[36.34,56.715],[36.375,56.706]],[[37.148,56.752],[37.473,56.898],[37.49,57.045],[37.714,57.212],[37.761,57.291]],[[43.432,56.675],[43.732,56.437],[43.892,56.399],[43.979,56.337],[44.152,56.304],[44.218,56.222],[44.213,56.184],[44.393,56.168],[44.606,56.062],[45.084,56.097],[45.195,56.142]],[[47.463,56.157],[47.871,56.136],[47.994,55.952],[48.285,55.846],[48.984,55.763],[49.015,55.707],[49.007,55.599],[49.059,55.483]],[[49.905,53.457],[50.088,53.454],[50.153,53.366],[50.169,53.257],[50.008,53.171],[49.805,53.227],[49.456,53.132],[49.344,53.214],[49.045,53.235],[48.662,53.138]],[[47.769,52.074],[47.712,52.037],[47.438,52.061],[47.092,51.933],[47.02,51.865],[46.777,51.741]],[[45.664,50.222],[45.432,50.089],[45.361,49.959],[45.359,49.789],[45.144,49.58],[45.034,49.413],[44.962,49.259],[44.969,49.155],[44.729,48.935],[44.631,48.769],[44.46,48.623],[44.461,48.585],[44.544,48.524],[44.656,48.534],[44.999,48.426],[45.173,48.46],[45.392,48.406],[45.468,48.479],[45.698,48.382],[45.957,48.322],[45.996,48.253],[46.077,48.236],[46.16,48.168],[46.129,48.078],[46.142,47.936],[46.346,47.863],[46.364,47.782],[46.542,47.747],[46.838,47.451],[46.984,47.425],[47.081,47.337],[47.087,47.201],[47.192,47.183],[47.403,47.032],[47.589,46.971],[47.572,46.855],[47.73,46.855],[47.776,46.774],[47.842,46.735]],[[47.842,46.735],[48.01,46.725],[48.205,46.666],[48.268,46.511],[48.266,46.423],[48.459,46.334],[48.565,46.134],[48.627,46.087]],[[47.842,46.735],[47.909,46.603],[48.012,46.527],[47.971,46.442],[48.018,46.364],[47.757,46.095],[47.739,46.015],[47.644,45.961],[47.633,45.834],[47.539,45.807],[47.556,45.766]]]}},{"type":"Feature","properties":{"name":"Río Orinoco","lat":8,"lng":-63,"length_km":2140,"discharge_m3s":30000,"basin_km2":880000,"description":"Tercer río más caudaloso del mundo, rico en biodiversidad","_raw":"{\"name\":\"Río Orinoco\",\"lat\":8,\"lng\":-63,\"length_km\":2140,\"discharge_m3s\":30000,\"basin_km2\":880000,\"countries\":[\"Venezuela\",\"Colombia\"],\"description\":\"Tercer río más caudaloso del mundo, rico en biodiversidad\"}"},"geometry":{"type":"MultiLineString","coordinates":[[[-62.326,9.721],[-62.444,9.509],[-62.396,9.481],[-62.387,9.417],[-62.321,9.357],[-62.315,9.265],[-62.245,9.231],[-62.222,9.157],[-62.056,9.067],[-62.084,8.945],[-62.006,8.879],[-62.137,8.673]],[[-62.044,9.055],[-61.884,9.184],[-61.886,9.291],[-61.743,9.603]],[[-61.106,8.945],[-61.477,8.743],[-61.51,8.672],[-61.599,8.624]],[[-61.65,8.603],[-61.835,8.617],[-61.957,8.575],[-62.137,8.673]],[[-63.436,2.374],[-63.514,2.379],[-63.614,2.31],[-63.709,2.292],[-63.77,2.177],[-63.82,2.153],[-64.021,2.148],[-64.127,2.219],[-64.306,2.256],[-64.374,2.303],[-64.491,2.256],[-64.749,2.379],[-65.022,2.436],[-65.136,2.52],[-65.204,2.529],[-65.175,2.687],[-65.205,2.784],[-65.26,2.876],[-65.368,2.92],[-65.467,3.105],[-65.546,3.153],[-65.803,3.142],[-65.875,3.175],[-65.926,3.142],[-65.999,3.169],[-66.025,3.151],[-66.019,3.032],[-66.048,3.013],[-66.37,3.056],[-66.543,3.196],[-66.594,3.358],[-66.666,3.414],[-66.772,3.584],[-66.995,3.739],[-67.02,3.806],[-66.985,3.911],[-67.022,3.949],[-67.395,3.945],[-67.506,4.017],[-67.638,4.028],[-67.778,4.154],[-67.806,4.269],[-67.794,4.429],[-67.876,4.533],[-67.794,5.064],[-67.825,5.111],[-67.844,5.297],[-67.811,5.379],[-67.653,5.478],[-67.618,5.542],[-67.65,5.656],[-67.626,5.785],[-67.423,5.978],[-67.429,6.039],[-67.492,6.115],[-67.488,6.167],[-67.413,6.241],[-67.337,6.254],[-67.282,6.362],[-67.138,6.459],[-67.129,6.638],[-67.042,6.783],[-67.062,6.851],[-67.035,6.913],[-67.082,7.023],[-67.074,7.094],[-66.795,7.259],[-66.615,7.323],[-66.371,7.64],[-66.236,7.636],[-66.131,7.684],[-65.96,7.671],[-65.769,7.841],[-65.598,7.91],[-65.447,7.861],[-65.278,7.874],[-65.104,7.834],[-64.839,7.66],[-64.637,7.772],[-64.496,7.791],[-64.482,7.843],[-64.553,7.925],[-64.524,7.996],[-64.353,8.009],[-64.266,8.084],[-64.126,7.966],[-63.981,7.967],[-63.885,8.018],[-63.812,8.131],[-63.668,8.16],[-63.474,8.15],[-63.4,8.222],[-63.331,8.214],[-63.175,8.313],[-62.977,8.309],[-62.937,8.27],[-62.879,8.274],[-62.785,8.366],[-62.678,8.39],[-62.527,8.513],[-62.436,8.514],[-62.323,8.589],[-62.209,8.605],[-62.137,8.673]]]}},{"type":"Feature","properties":{"name":"Río Paraná","lat":-27,"lng":-56,"length_km":4880,"discharge_m3s":17290,"basin_km2":2582000,"description":"Segundo río más largo de Sudamérica","_raw":"{\"name\":\"Río Paraná\",\"lat\":-27,\"lng\":-56,\"length_km\":4880,\"discharge_m3s\":17290,\"basin_km2\":2582000,\"countries\":[\"Brasil\",\"Paraguay\",\"Argentina\"],\"description\":\"Segundo río más largo de Sudamérica\"}"},"geometry":{"type":"MultiLineString","coordinates":[[[-55.075,-14.319],[-55.174,-14.293],[-55.49,-14.367],[-55.556,-14.424],[-55.824,-14.52],[-55.923,-14.613],[-56.222,-14.685],[-56.274,-14.737],[-56.26,-14.76],[-56.326,-14.793],[-56.309,-14.812],[-56.395,-14.833],[-56.391,-14.916],[-56.446,-14.917],[-56.446,-14.977],[-56.497,-15.003],[-56.498,-15.137],[-56.422,-15.152],[-56.283,-15.273],[-56.25,-15.492],[-56.208,-15.497],[-56.073,-15.647],[-56.138,-15.779],[-56.117,-15.867],[-56.038,-15.912],[-56.032,-15.954],[-55.931,-15.98],[-55.879,-16.079],[-55.992,-16.227],[-55.932,-16.337],[-56.064,-16.438],[-56.255,-16.45],[-56.371,-16.519],[-56.5,-16.766],[-56.622,-16.856],[-56.639,-16.968],[-56.59,-17.067],[-56.612,-17.135],[-56.673,-17.175],[-56.791,-17.37],[-56.844,-17.404],[-56.857,-17.492],[-56.971,-17.58],[-56.986,-17.66],[-57.113,-17.781],[-57.414,-17.862],[-57.456,-17.907],[-57.455,-18.077],[-57.402,-18.133],[-57.41,-18.285],[-57.363,-18.458],[-57.534,-18.603],[-57.554,-18.678],[-57.529,-18.709],[-57.601,-18.79],[-57.576,-18.821],[-57.642,-18.855],[-57.648,-18.889],[-57.686,-18.876],[-57.699,-18.911],[-57.659,-19.007],[-57.377,-19.054],[-57.377,-19.109],[-57.33,-19.119],[-57.309,-19.174],[-57.314,-19.378],[-57.41,-19.464],[-57.44,-19.521],[-57.385,-19.541],[-57.487,-19.65],[-57.48,-19.685],[-57.533,-19.678],[-57.648,-19.733],[-57.638,-19.794],[-57.734,-19.853],[-57.768,-19.918],[-57.896,-20.024],[-57.96,-20.026],[-58.159,-20.165],[-58.119,-20.214],[-58.156,-20.226],[-58.157,-20.262],[-58.096,-20.272],[-58.084,-20.376],[-57.99,-20.433],[-58.011,-20.5],[-57.981,-20.693],[-57.957,-20.71],[-57.919,-20.67],[-57.861,-20.73],[-57.941,-20.793],[-57.86,-20.832],[-57.916,-20.906],[-57.818,-20.954],[-57.853,-21.038],[-57.835,-21.174],[-57.905,-21.275],[-57.856,-21.331],[-57.95,-21.508],[-57.913,-21.564],[-57.936,-21.641],[-57.896,-21.688],[-57.94,-21.755],[-57.957,-21.851],[-57.926,-21.905],[-57.989,-22.064],[-57.966,-22.257],[-57.897,-22.279],[-57.831,-22.377],[-57.852,-22.412],[-57.831,-22.559],[-57.775,-22.656],[-57.896,-22.665],[-57.94,-22.716],[-57.792,-22.857],[-57.821,-22.906],[-57.773,-22.961],[-57.79,-23.021],[-57.714,-23.085],[-57.64,-23.099],[-57.625,-23.165],[-57.48,-23.279],[-57.504,-23.344],[-57.454,-23.409],[-57.451,-23.574],[-57.276,-23.732],[-57.303,-23.765],[-57.291,-23.862],[-57.344,-23.923],[-57.285,-23.954],[-57.268,-24.03],[-57.232,-24.033],[-57.234,-24.095],[-57.163,-24.118],[-57.199,-24.176],[-57.119,-24.262],[-57.069,-24.516],[-57.104,-24.541],[-57.13,-24.64],[-57.091,-24.678],[-57.122,-24.752],[-57.179,-24.763],[-57.249,-24.891],[-57.216,-24.901],[-57.2,-24.984],[-57.286,-24.982],[-57.422,-25.112],[-57.524,-25.109],[-57.57,-25.222],[-57.672,-25.29],[-57.642,-25.373],[-57.559,-25.444],[-57.576,-25.564],[-57.775,-25.702],[-57.741,-25.722],[-57.821,-25.778],[-57.803,-25.831],[-57.876,-25.876],[-57.852,-25.908],[-57.907,-25.969],[-57.86,-25.981],[-57.873,-26.01],[-58.087,-26.127],[-58.125,-26.202],[-58.152,-26.181],[-58.107,-26.239],[-58.171,-26.27],[-58.168,-26.335],[-58.214,-26.419],[-58.186,-26.452],[-58.218,-26.528],[-58.166,-26.592],[-58.193,-26.613],[-58.179,-26.651],[-58.236,-26.65],[-58.249,-26.758],[-58.289,-26.768],[-58.289,-26.811],[-58.341,-26.809],[-58.317,-26.874],[-58.476,-26.938],[-58.512,-27.06],[-58.546,-27.041],[-58.566,-27.116],[-58.654,-27.156],[-58.653,-27.198],[-58.602,-27.246],[-58.605,-27.316]],[[-58.605,-27.314],[-58.887,-27.479],[-58.816,-27.717],[-58.842,-27.916],[-58.895,-28.071],[-58.951,-28.112],[-59.06,-28.13],[-59.088,-28.175],[-59.066,-28.401],[-59.087,-28.627],[-59.194,-28.921],[-59.198,-29.022],[-59.359,-29.144],[-59.485,-29.189],[-59.548,-29.26],[-59.589,-29.411],[-59.591,-29.615],[-59.673,-29.847],[-59.595,-30.049],[-59.669,-30.294],[-59.615,-30.463],[-59.661,-30.736],[-60.164,-31.442],[-60.414,-31.674],[-60.648,-31.716],[-60.674,-31.853],[-60.72,-31.922],[-60.662,-32.069],[-60.707,-32.156],[-60.767,-32.578],[-60.706,-32.68],[-60.676,-32.847],[-60.552,-33.061],[-60.415,-33.165]],[[-60.415,-33.165],[-60.221,-33.242],[-60.058,-33.239],[-60.01,-33.277],[-59.989,-33.248],[-59.948,-33.273],[-59.927,-33.232],[-59.898,-33.278],[-59.761,-33.242],[-59.744,-33.289],[-59.698,-33.276],[-59.626,-33.33],[-59.63,-33.373],[-59.566,-33.383],[-59.543,-33.438],[-59.375,-33.537],[-59.36,-33.597],[-59.202,-33.743],[-59.186,-33.807]],[[-60.415,-33.165],[-60.118,-33.394],[-59.844,-33.534],[-59.773,-33.611],[-59.641,-33.671],[-59.521,-33.655],[-59.393,-33.739],[-59.269,-33.721],[-59.249,-33.787],[-59.186,-33.807]],[[-59.186,-33.807],[-59.032,-33.83],[-58.639,-34.049],[-58.447,-34.007]],[[-50.997,-19.667],[-51.028,-19.754],[-50.994,-20.102],[-51.029,-20.189],[-51.114,-20.283],[-51.327,-20.362],[-51.397,-20.442]],[[-51.936,-21.423],[-51.961,-21.485],[-52.076,-21.52],[-52.061,-21.657],[-52.171,-21.737],[-52.307,-21.901],[-52.434,-22.125],[-52.527,-22.198],[-52.842,-22.337],[-52.961,-22.455]],[[-54.643,-25.406],[-54.609,-25.42]],[[-54.611,-25.433],[-54.427,-25.149],[-54.463,-25.037],[-54.322,-24.628],[-54.335,-24.497],[-54.263,-24.358],[-54.335,-24.149],[-54.267,-24.066]],[[-50.49,-19.02],[-50.546,-19.109],[-50.674,-19.122],[-50.831,-19.277],[-50.881,-19.411],[-50.839,-19.463],[-50.871,-19.486],[-50.953,-19.459],[-50.937,-19.549],[-50.989,-19.583],[-50.997,-19.667]],[[-51.397,-20.441],[-51.515,-20.574],[-51.58,-20.596],[-51.62,-20.7],[-51.632,-20.877],[-51.793,-21.09],[-51.871,-21.144],[-51.852,-21.299],[-51.936,-21.423]],[[-52.961,-22.455],[-53.168,-22.702],[-53.585,-22.903],[-53.725,-23.296],[-53.968,-23.444],[-54.077,-23.949],[-54.246,-24.05]],[[-53.795,-23.355],[-53.879,-23.446],[-54.023,-23.861],[-54.027,-23.968],[-54.13,-24.044],[-54.246,-24.05]],[[-54.246,-24.05],[-54.267,-24.066]],[[-54.611,-25.433],[-54.584,-25.645],[-54.634,-25.652],[-54.644,-25.688],[-54.589,-25.811],[-54.607,-25.947],[-54.663,-25.98],[-54.643,-26.063],[-54.665,-26.149],[-54.639,-26.197],[-54.698,-26.428],[-54.791,-26.528],[-54.794,-26.645],[-54.921,-26.674],[-54.976,-26.788],[-55.062,-26.805],[-55.126,-26.863],[-55.139,-26.954],[-55.281,-26.934],[-55.415,-26.98],[-55.463,-27.098],[-55.535,-27.099],[-55.556,-27.154],[-55.599,-27.167],[-55.569,-27.246],[-55.592,-27.328],[-55.755,-27.444],[-55.855,-27.401],[-55.894,-27.335],[-56.125,-27.299],[-56.281,-27.389],[-56.298,-27.481],[-56.4,-27.587],[-56.547,-27.455],[-56.614,-27.446],[-56.772,-27.507],[-56.905,-27.419],[-57.077,-27.484],[-57.181,-27.487],[-57.336,-27.41],[-57.514,-27.414],[-57.71,-27.33],[-58.023,-27.26],[-58.511,-27.278],[-58.605,-27.314]]]}},{"type":"Feature","properties":{"name":"Río Rin","lat":50,"lng":7,"length_km":1230,"discharge_m3s":2300,"basin_km2":185000,"description":"Arteria comercial de Europa occidental","_raw":"{\"name\":\"Río Rin\",\"lat\":50,\"lng\":7,\"length_km\":1230,\"discharge_m3s\":2300,\"basin_km2\":185000,\"countries\":[\"Suiza\",\"Alemania\",\"Países Bajos\"],\"description\":\"Arteria comercial de Europa occidental\"}"},"geometry":{"type":"LineString","coordinates":[[8.23,48.965],[8.357,49.109],[8.387,49.232],[8.48,49.297],[8.46,49.315],[8.504,49.431],[8.442,49.452],[8.463,49.473],[8.36,49.664],[8.379,49.71],[8.476,49.767],[8.424,49.767],[8.34,49.891],[8.335,49.959],[8.213,50.044],[7.878,49.973],[7.765,50.064],[7.72,50.158],[7.651,50.179],[7.579,50.25],[7.648,50.261],[7.592,50.315],[7.613,50.384],[7.387,50.449],[7.213,50.596],[7.175,50.699],[6.976,50.84],[7.051,50.891],[6.976,50.908],[6.966,51.028],[6.853,51.076],[6.878,51.114],[6.846,51.16],[6.802,51.151],[6.793,51.184],[6.728,51.196],[6.724,51.227],[6.77,51.238],[6.704,51.271],[6.73,51.326],[6.654,51.36],[6.736,51.391],[6.717,51.47],[6.685,51.48],[6.719,51.507],[6.686,51.565],[6.592,51.577],[6.59,51.655],[6.492,51.669],[6.407,51.754],[6.278,51.821],[6.014,51.885],[5.86,51.851],[5.719,51.894],[5.543,51.901],[5.462,51.892],[5.338,51.81],[4.985,51.824]]}},{"type":"Feature","properties":{"name":"Río Tigris","lat":34,"lng":43,"length_km":1850,"discharge_m3s":1014,"basin_km2":375000,"description":"Cuna de la civilización mesopotámica","_raw":"{\"name\":\"Río Tigris\",\"lat\":34,\"lng\":43,\"length_km\":1850,\"discharge_m3s\":1014,\"basin_km2\":375000,\"countries\":[\"Turquía\",\"Irak\"],\"description\":\"Cuna de la civilización mesopotámica\"}"},"geometry":{"type":"MultiLineString","coordinates":[[[42.377,37.063],[42.453,36.966],[42.507,36.973],[42.535,36.863],[42.515,36.843],[42.612,36.789],[42.69,36.8],[42.781,36.74],[42.754,36.712],[42.892,36.706],[42.877,36.671],[42.904,36.647],[42.831,36.643],[42.754,36.552],[42.751,36.505],[42.936,36.491],[42.98,36.47],[42.969,36.433],[43.001,36.409],[43.124,36.398],[43.205,36.238],[43.303,36.141],[43.346,35.98],[43.329,35.919],[43.361,35.881],[43.316,35.863],[43.309,35.795]],[[43.309,35.795],[43.288,35.735],[43.319,35.694],[43.241,35.645],[43.267,35.606],[43.241,35.554],[43.269,35.412],[43.365,35.345],[43.351,35.28],[43.422,35.265],[43.397,35.201],[43.584,35.031],[43.522,34.933],[43.577,34.789],[43.676,34.713],[43.716,34.554],[43.77,34.53],[43.829,34.223],[43.971,34.085],[44.291,34.042],[44.448,33.935],[44.389,33.784],[44.426,33.725],[44.385,33.63],[44.323,33.613],[44.309,33.55],[44.38,33.295],[44.448,33.289],[44.489,33.233],[44.487,33.173],[44.551,33.136],[44.576,33.073],[44.612,33.077],[44.666,33.016],[44.739,33.023],[44.728,32.974],[44.839,32.972],[44.969,32.876],[45.06,32.895],[45.027,32.847],[45.104,32.786],[45.267,32.774],[45.256,32.693],[45.379,32.648],[45.426,32.574],[45.512,32.595],[45.526,32.534],[45.661,32.564],[45.809,32.502]],[[43.309,35.795],[43.309,35.795]],[[45.807,32.511],[45.925,32.551],[45.965,32.61],[46.104,32.655],[46.162,32.641],[46.234,32.565],[46.673,32.471],[46.75,32.358],[46.707,32.318],[46.722,32.257],[46.692,32.211],[46.719,32.129],[46.863,32.062],[46.899,31.949],[46.966,31.869],[47.099,31.896],[47.135,31.864],[47.15,31.711],[47.434,31.375],[47.427,31.181],[47.456,31.149],[47.421,31.107],[47.434,31.019]]]}},{"type":"Feature","properties":{"name":"Río Éufrates","lat":35,"lng":40,"length_km":2780,"discharge_m3s":856,"basin_km2":440000,"description":"El río más largo del suroeste asiático","_raw":"{\"name\":\"Río Éufrates\",\"lat\":35,\"lng\":40,\"length_km\":2780,\"discharge_m3s\":856,\"basin_km2\":440000,\"countries\":[\"Turquía\",\"Siria\",\"Irak\"],\"description\":\"El río más largo del suroeste asiático\"}"},"geometry":{"type":"MultiLineString","coordinates":[[[40.993,34.428],[41.106,34.369],[41.161,34.374],[41.219,34.396],[41.178,34.424],[41.224,34.449],[41.268,34.416],[41.297,34.457],[41.432,34.424],[41.404,34.46],[41.424,34.472],[41.451,34.428],[41.527,34.424],[41.589,34.445],[41.595,34.479],[41.713,34.456],[41.78,34.522],[41.842,34.475],[41.968,34.472],[42.03,34.389],[42.125,34.332],[42.145,34.279],[42.245,34.315],[42.278,34.271],[42.297,34.347],[42.336,34.35],[42.385,34.29],[42.315,34.226],[42.387,34.191],[42.371,34.088],[42.425,34.017],[42.494,34.047],[42.556,33.971],[42.528,33.869],[42.583,33.848],[42.644,33.902],[42.733,33.876],[42.759,33.853],[42.719,33.807],[42.747,33.747],[42.712,33.718],[42.85,33.636],[42.932,33.53],[43.011,33.533],[43.066,33.494],[43.119,33.537],[43.265,33.449],[43.357,33.472],[43.487,33.431],[43.495,33.404],[43.555,33.423],[43.63,33.373],[43.645,33.397],[43.727,33.335],[43.754,33.349],[43.761,33.3],[43.809,33.252],[43.837,33.261],[43.861,33.183],[43.907,33.212],[43.956,33.156],[44.07,33.142],[44.036,33.129],[44.159,33.032],[44.175,32.934],[44.253,32.879],[44.29,32.8],[44.223,32.57],[44.295,32.467],[44.288,32.41],[44.354,32.275],[44.357,32.118],[44.478,31.936],[44.494,31.659],[44.777,31.468],[44.852,31.491],[44.935,31.431],[45.132,31.428],[45.2,31.402],[45.238,31.328]],[[45.238,31.328],[45.467,31.305]],[[45.238,31.328],[45.238,31.328]],[[45.463,31.305],[45.532,31.288],[45.567,31.203],[45.687,31.162],[46.041,31.126],[46.104,31.072],[46.252,31.044],[46.511,30.884],[46.748,30.962],[47.009,30.979],[47.297,30.95],[47.433,31.016],[47.469,30.968]]]}}]}